{
  "type": "FeatureCollection",
  "features": [
    {
      "type": "Feature",
      "properties": {
        "norad_id": 41599,
        "name": "CARTOSAT-2C",
        "group": "resource",
        "lat": 12.39898608260137,
        "lon": 48.97863570045402,
        "alt_km": 502.95998566669005,
        "timestamp": "2025-12-19T10:50:00.849072+00:00",
        "meta_object_name": "CARTOSAT-2C",
        "meta_object_id": "2016-040A",
        "meta_epoch": "2025-12-18T23:42:46.903968",
        "meta_mean_motion": 15.19164777,
        "meta_eccentricity": 0.00112123,
        "meta_inclination": 97.4763,
        "meta_ra_of_asc_node": 50.1745,
        "meta_arg_of_pericenter": 43.6035,
        "meta_mean_anomaly": 316.6083,
        "meta_ephemeris_type": 0,
        "meta_classification_type": "U",
        "meta_norad_cat_id": 41599,
        "meta_element_set_no": 999,
        "meta_rev_at_epoch": 52635,
        "meta_bstar": 7.5465712e-05,
        "meta_mean_motion_dot": 1.52e-05,
        "meta_mean_motion_ddot": 0,
        "tle_line1": "1 41599U 16040A   25352.98804287  .00001520  00000+0  75466-4 0  9991",
        "tle_line2": "2 41599  97.4763  50.1745 0011212  43.6035 316.6083 15.19164777526352"
      },
      "geometry": {
        "type": "Point",
        "coordinates": [
          48.97863570045402,
          12.39898608260137
        ]
      }
    },
    {
      "type": "Feature",
      "properties": {
        "norad_id": 41601,
        "name": "SKYSAT-C1",
        "group": "resource",
        "lat": 31.352906406712034,
        "lon": 25.80511452047693,
        "alt_km": 465.20770658520996,
        "timestamp": "2025-12-19T10:50:00.849082+00:00",
        "meta_object_name": "SKYSAT-C1",
        "meta_object_id": "2016-040C",
        "meta_epoch": "2025-12-18T14:19:35.767200",
        "meta_mean_motion": 15.3269388,
        "meta_eccentricity": 0.00016646,
        "meta_inclination": 96.9818,
        "meta_ra_of_asc_node": 29.2807,
        "meta_arg_of_pericenter": 356.1128,
        "meta_mean_anomaly": 4.0102,
        "meta_ephemeris_type": 0,
        "meta_classification_type": "U",
        "meta_norad_cat_id": 41601,
        "meta_element_set_no": 999,
        "meta_rev_at_epoch": 53017,
        "meta_bstar": 0.00024321745,
        "meta_mean_motion_dot": 7.607e-05,
        "meta_mean_motion_ddot": 0,
        "tle_line1": "1 41601U 16040C   25352.59694175  .00007607  00000+0  24322-3 0  9991",
        "tle_line2": "2 41601  96.9818  29.2807 0001664 356.1128   4.0102 15.32693880530174"
      },
      "geometry": {
        "type": "Point",
        "coordinates": [
          25.80511452047693,
          31.352906406712034
        ]
      }
    },
    {
      "type": "Feature",
      "properties": {
        "norad_id": 41603,
        "name": "LAPAN-A3",
        "group": "resource",
        "lat": 30.029055760165253,
        "lon": 174.92015998804894,
        "alt_km": 475.3229130021491,
        "timestamp": "2025-12-19T10:50:00.849093+00:00",
        "meta_object_name": "LAPAN-A3",
        "meta_object_id": "2016-040E",
        "meta_epoch": "2025-12-18T23:12:21.292704",
        "meta_mean_motion": 15.31600754,
        "meta_eccentricity": 0.00090606,
        "meta_inclination": 97.1423,
        "meta_ra_of_asc_node": 350.2967,
        "meta_arg_of_pericenter": 308.7776,
        "meta_mean_anomaly": 51.2656,
        "meta_ephemeris_type": 0,
        "meta_classification_type": "U",
        "meta_norad_cat_id": 41603,
        "meta_element_set_no": 999,
        "meta_rev_at_epoch": 52721,
        "meta_bstar": 0.00010889938,
        "meta_mean_motion_dot": 3.252e-05,
        "meta_mean_motion_ddot": 0,
        "tle_line1": "1 41603U 16040E   25352.96691311  .00003252  00000+0  10890-3 0  9990",
        "tle_line2": "2 41603  97.1423 350.2967 0009060 308.7776  51.2656 15.31600754527211"
      },
      "geometry": {
        "type": "Point",
        "coordinates": [
          174.92015998804894,
          30.029055760165253
        ]
      }
    },
    {
      "type": "Feature",
      "properties": {
        "norad_id": 41604,
        "name": "BIROS",
        "group": "resource",
        "lat": -33.0591052034423,
        "lon": 29.79818722107774,
        "alt_km": 304.6840198775253,
        "timestamp": "2025-12-19T10:50:00.849104+00:00",
        "meta_object_name": "BIROS",
        "meta_object_id": "2016-040F",
        "meta_epoch": "2025-12-18T15:21:48.240288",
        "meta_mean_motion": 15.91957755,
        "meta_eccentricity": 0.00036858,
        "meta_inclination": 97.0683,
        "meta_ra_of_asc_node": 24.3187,
        "meta_arg_of_pericenter": 135.4463,
        "meta_mean_anomaly": 224.7109,
        "meta_ephemeris_type": 0,
        "meta_classification_type": "U",
        "meta_norad_cat_id": 41604,
        "meta_element_set_no": 999,
        "meta_rev_at_epoch": 52966,
        "meta_bstar": 0.00057739272,
        "meta_mean_motion_dot": 0.00189106,
        "meta_mean_motion_ddot": 1.5181401e-05,
        "tle_line1": "1 41604U 16040F   25352.64014167  .00189106  15181-4  57739-3 0  9991",
        "tle_line2": "2 41604  97.0683  24.3187 0003685 135.4463 224.7109 15.91957755529660"
      },
      "geometry": {
        "type": "Point",
        "coordinates": [
          29.79818722107774,
          -33.0591052034423
        ]
      }
    },
    {
      "type": "Feature",
      "properties": {
        "norad_id": 41727,
        "name": "GAOFEN-3",
        "group": "resource",
        "lat": -67.05657817331192,
        "lon": 19.374550729852114,
        "alt_km": 758.9445443727691,
        "timestamp": "2025-12-19T10:50:00.849114+00:00",
        "meta_object_name": "GAOFEN-3",
        "meta_object_id": "2016-049A",
        "meta_epoch": "2025-12-18T23:29:44.037888",
        "meta_mean_motion": 14.42215334,
        "meta_eccentricity": 0.00012716,
        "meta_inclination": 98.4034,
        "meta_ra_of_asc_node": 358.4704,
        "meta_arg_of_pericenter": 58.2815,
        "meta_mean_anomaly": 301.8499,
        "meta_ephemeris_type": 0,
        "meta_classification_type": "U",
        "meta_norad_cat_id": 41727,
        "meta_element_set_no": 999,
        "meta_rev_at_epoch": 49267,
        "meta_bstar": 4.314107e-05,
        "meta_mean_motion_dot": 9.9e-07,
        "meta_mean_motion_ddot": 0,
        "tle_line1": "1 41727U 16049A   25352.97898192  .00000099  00000+0  43141-4 0  9995",
        "tle_line2": "2 41727  98.4034 358.4704 0001271  58.2815 301.8499 14.42215334492673"
      },
      "geometry": {
        "type": "Point",
        "coordinates": [
          19.374550729852114,
          -67.05657817331192
        ]
      }
    },
    {
      "type": "Feature",
      "properties": {
        "norad_id": 41771,
        "name": "SKYSAT-C4",
        "group": "resource",
        "lat": -20.766344139145797,
        "lon": -164.3324573100099,
        "alt_km": 443.9209514414715,
        "timestamp": "2025-12-19T10:50:00.849125+00:00",
        "meta_object_name": "SKYSAT-C4",
        "meta_object_id": "2016-058B",
        "meta_epoch": "2025-12-18T15:16:53.676768",
        "meta_mean_motion": 15.42414092,
        "meta_eccentricity": 0.00020415,
        "meta_inclination": 96.9365,
        "meta_ra_of_asc_node": 17.5383,
        "meta_arg_of_pericenter": 129.8527,
        "meta_mean_anomaly": 230.2902,
        "meta_ephemeris_type": 0,
        "meta_classification_type": "U",
        "meta_norad_cat_id": 41771,
        "meta_element_set_no": 999,
        "meta_rev_at_epoch": 51758,
        "meta_bstar": 0.00028785396,
        "meta_mean_motion_dot": 0.00012366,
        "meta_mean_motion_ddot": 0,
        "tle_line1": "1 41771U 16058B   25352.63673237  .00012366  00000+0  28785-3 0  9994",
        "tle_line2": "2 41771  96.9365  17.5383 0002041 129.8527 230.2902 15.42414092517584"
      },
      "geometry": {
        "type": "Point",
        "coordinates": [
          -164.3324573100099,
          -20.766344139145797
        ]
      }
    },
    {
      "type": "Feature",
      "properties": {
        "norad_id": 41772,
        "name": "SKYSAT-C5",
        "group": "resource",
        "lat": -80.08770137629595,
        "lon": 82.2219179121748,
        "alt_km": 468.8141018323422,
        "timestamp": "2025-12-19T10:50:00.849135+00:00",
        "meta_object_name": "SKYSAT-C5",
        "meta_object_id": "2016-058C",
        "meta_epoch": "2025-12-18T16:24:29.449152",
        "meta_mean_motion": 15.33979747,
        "meta_eccentricity": 0.00037476,
        "meta_inclination": 97.0754,
        "meta_ra_of_asc_node": 36.1878,
        "meta_arg_of_pericenter": 264.6502,
        "meta_mean_anomaly": 95.4314,
        "meta_ephemeris_type": 0,
        "meta_classification_type": "U",
        "meta_norad_cat_id": 41772,
        "meta_element_set_no": 999,
        "meta_rev_at_epoch": 51607,
        "meta_bstar": 0.00023205942,
        "meta_mean_motion_dot": 7.556e-05,
        "meta_mean_motion_ddot": 0,
        "tle_line1": "1 41772U 16058C   25352.68367418  .00007556  00000+0  23206-3 0  9999",
        "tle_line2": "2 41772  97.0754  36.1878 0003747 264.6502  95.4314 15.33979747516074"
      },
      "geometry": {
        "type": "Point",
        "coordinates": [
          82.2219179121748,
          -80.08770137629595
        ]
      }
    }
  ]
}